STARLINK-36551          
1 67493U 26012A   26039.83335647 -.01941373  00000+0 -25895-1 0  9998
2 67493  42.9995 118.8738 0001451 275.7036   1.4294 15.60608077  4437
STARLINK-36396          
1 67494U 26012B   26039.83335647 -.00177302  00000+0 -30721-2 0  9996
2 67494  43.0001 119.5830 0001846 346.4281   4.1875 15.50697027  4432
STARLINK-36550          
1 67495U 26012C   26039.83335647 -.02208724  00000+0 -37485-1 0  9995
2 67495  42.9998 119.0896 0001289 308.3726 242.4453 15.54138254  4430
STARLINK-36534          
1 67496U 26012D   26039.83335647 -.01932667  00000+0 -26662-1 0  9990
2 67496  42.9991 118.8761 0001417 275.0297   0.8593 15.59724286  4373
STARLINK-36555          
1 67497U 26012E   26039.83335647 -.01939438  00000+0 -26855-1 0  9998
2 67497  42.9993 118.8920 0001475 278.9807 350.6446 15.59639814  4438
STARLINK-36081          
1 67498U 26012F   26039.83335647 -.02074788  00000+0 -35664-1 0  9996
2 67498  42.9994 119.0811 0001315 284.3829 269.2715 15.53574855  4374
STARLINK-36558          
1 67499U 26012G   26039.83335647 -.02077287  00000+0 -35743-1 0  9992
2 67499  42.9996 119.0743 0001256 278.1532 278.0445 15.53551560  4430
STARLINK-36557          
1 67500U 26012H   26039.83335647 -.01943128  00000+0 -23584-1 0  9990
2 67500  42.9995 118.6982 0001524 279.9025  67.8631 15.63012583  4435
STARLINK-36433          
1 67501U 26012J   26039.83335647 -.01947549  00000+0 -23303-1 0  9991
2 67501  42.9995 118.6729 0001538 283.3713  74.4789 15.63378630  4439
STARLINK-36554          
1 67502U 26012K   26039.83335647 -.01927780  00000+0 -27732-1 0  9997
2 67502  42.9991 118.8752 0001482 276.9645 358.9153 15.58625635  4376
STARLINK-36552          
1 67503U 26012L   26039.83335647 -.01941594  00000+0 -22300-1 0  9993
2 67503  42.9995 118.6109 0001513 286.6066  96.0036 15.64393154  4437
STARLINK-36512          
1 67504U 26012M   26039.83335647 -.01943231  00000+0 -24173-1 0  9994
2 67504  42.9997 118.6774 0001483 280.7589  75.0052 15.62391540  4439
