CCSDS_OMM_VERS = 2.0
CREATION_DATE  = 
ORIGINATOR     = 

OBJECT_NAME    = STARLINK-36551
OBJECT_ID      = 2026-012A
CENTER_NAME    = EARTH
REF_FRAME      = TEME
TIME_SYSTEM    = UTC
MEAN_ELEMENT_THEORY = SGP/SGP4

EPOCH          = 2026-02-08T20:00:01.999008
MEAN_MOTION    = 15.60608077
ECCENTRICITY   = .0001451
INCLINATION    = 42.9995
RA_OF_ASC_NODE = 118.8738
ARG_OF_PERICENTER = 275.7036
MEAN_ANOMALY   = 1.4294

EPHEMERIS_TYPE = 0
CLASSIFICATION_TYPE = U
NORAD_CAT_ID   = 67493
ELEMENT_SET_NO = 999
REV_AT_EPOCH   = 443
BSTAR          = -.25895E-1
MEAN_MOTION_DOT = -.1941373E-1
MEAN_MOTION_DDOT = 0

CCSDS_OMM_VERS = 2.0
CREATION_DATE  = 
ORIGINATOR     = 

OBJECT_NAME    = STARLINK-36396
OBJECT_ID      = 2026-012B
CENTER_NAME    = EARTH
REF_FRAME      = TEME
TIME_SYSTEM    = UTC
MEAN_ELEMENT_THEORY = SGP/SGP4

EPOCH          = 2026-02-08T20:00:01.999008
MEAN_MOTION    = 15.50697027
ECCENTRICITY   = .0001846
INCLINATION    = 43.0001
RA_OF_ASC_NODE = 119.5830
ARG_OF_PERICENTER = 346.4281
MEAN_ANOMALY   = 4.1875

EPHEMERIS_TYPE = 0
CLASSIFICATION_TYPE = U
NORAD_CAT_ID   = 67494
ELEMENT_SET_NO = 999
REV_AT_EPOCH   = 443
BSTAR          = -.30721E-2
MEAN_MOTION_DOT = -.177302E-2
MEAN_MOTION_DDOT = 0

CCSDS_OMM_VERS = 2.0
CREATION_DATE  = 
ORIGINATOR     = 

OBJECT_NAME    = STARLINK-36550
OBJECT_ID      = 2026-012C
CENTER_NAME    = EARTH
REF_FRAME      = TEME
TIME_SYSTEM    = UTC
MEAN_ELEMENT_THEORY = SGP/SGP4

EPOCH          = 2026-02-08T20:00:01.999008
MEAN_MOTION    = 15.54138254
ECCENTRICITY   = .0001289
INCLINATION    = 42.9998
RA_OF_ASC_NODE = 119.0896
ARG_OF_PERICENTER = 308.3726
MEAN_ANOMALY   = 242.4453

EPHEMERIS_TYPE = 0
CLASSIFICATION_TYPE = U
NORAD_CAT_ID   = 67495
ELEMENT_SET_NO = 999
REV_AT_EPOCH   = 443
BSTAR          = -.37485E-1
MEAN_MOTION_DOT = -.2208724E-1
MEAN_MOTION_DDOT = 0

CCSDS_OMM_VERS = 2.0
CREATION_DATE  = 
ORIGINATOR     = 

OBJECT_NAME    = STARLINK-36534
OBJECT_ID      = 2026-012D
CENTER_NAME    = EARTH
REF_FRAME      = TEME
TIME_SYSTEM    = UTC
MEAN_ELEMENT_THEORY = SGP/SGP4

EPOCH          = 2026-02-08T20:00:01.999008
MEAN_MOTION    = 15.59724286
ECCENTRICITY   = .0001417
INCLINATION    = 42.9991
RA_OF_ASC_NODE = 118.8761
ARG_OF_PERICENTER = 275.0297
MEAN_ANOMALY   = 0.8593

EPHEMERIS_TYPE = 0
CLASSIFICATION_TYPE = U
NORAD_CAT_ID   = 67496
ELEMENT_SET_NO = 999
REV_AT_EPOCH   = 437
BSTAR          = -.26662E-1
MEAN_MOTION_DOT = -.1932667E-1
MEAN_MOTION_DDOT = 0

CCSDS_OMM_VERS = 2.0
CREATION_DATE  = 
ORIGINATOR     = 

OBJECT_NAME    = STARLINK-36555
OBJECT_ID      = 2026-012E
CENTER_NAME    = EARTH
REF_FRAME      = TEME
TIME_SYSTEM    = UTC
MEAN_ELEMENT_THEORY = SGP/SGP4

EPOCH          = 2026-02-08T20:00:01.999008
MEAN_MOTION    = 15.59639814
ECCENTRICITY   = .0001475
INCLINATION    = 42.9993
RA_OF_ASC_NODE = 118.8920
ARG_OF_PERICENTER = 278.9807
MEAN_ANOMALY   = 350.6446

EPHEMERIS_TYPE = 0
CLASSIFICATION_TYPE = U
NORAD_CAT_ID   = 67497
ELEMENT_SET_NO = 999
REV_AT_EPOCH   = 443
BSTAR          = -.26855E-1
MEAN_MOTION_DOT = -.1939438E-1
MEAN_MOTION_DDOT = 0

CCSDS_OMM_VERS = 2.0
CREATION_DATE  = 
ORIGINATOR     = 

OBJECT_NAME    = STARLINK-36081
OBJECT_ID      = 2026-012F
CENTER_NAME    = EARTH
REF_FRAME      = TEME
TIME_SYSTEM    = UTC
MEAN_ELEMENT_THEORY = SGP/SGP4

EPOCH          = 2026-02-08T20:00:01.999008
MEAN_MOTION    = 15.53574855
ECCENTRICITY   = .0001315
INCLINATION    = 42.9994
RA_OF_ASC_NODE = 119.0811
ARG_OF_PERICENTER = 284.3829
MEAN_ANOMALY   = 269.2715

EPHEMERIS_TYPE = 0
CLASSIFICATION_TYPE = U
NORAD_CAT_ID   = 67498
ELEMENT_SET_NO = 999
REV_AT_EPOCH   = 437
BSTAR          = -.35664E-1
MEAN_MOTION_DOT = -.2074788E-1
MEAN_MOTION_DDOT = 0

CCSDS_OMM_VERS = 2.0
CREATION_DATE  = 
ORIGINATOR     = 

OBJECT_NAME    = STARLINK-36558
OBJECT_ID      = 2026-012G
CENTER_NAME    = EARTH
REF_FRAME      = TEME
TIME_SYSTEM    = UTC
MEAN_ELEMENT_THEORY = SGP/SGP4

EPOCH          = 2026-02-08T20:00:01.999008
MEAN_MOTION    = 15.53551560
ECCENTRICITY   = .0001256
INCLINATION    = 42.9996
RA_OF_ASC_NODE = 119.0743
ARG_OF_PERICENTER = 278.1532
MEAN_ANOMALY   = 278.0445

EPHEMERIS_TYPE = 0
CLASSIFICATION_TYPE = U
NORAD_CAT_ID   = 67499
ELEMENT_SET_NO = 999
REV_AT_EPOCH   = 443
BSTAR          = -.35743E-1
MEAN_MOTION_DOT = -.2077287E-1
MEAN_MOTION_DDOT = 0

CCSDS_OMM_VERS = 2.0
CREATION_DATE  = 
ORIGINATOR     = 

OBJECT_NAME    = STARLINK-36557
OBJECT_ID      = 2026-012H
CENTER_NAME    = EARTH
REF_FRAME      = TEME
TIME_SYSTEM    = UTC
MEAN_ELEMENT_THEORY = SGP/SGP4

EPOCH          = 2026-02-08T20:00:01.999008
MEAN_MOTION    = 15.63012583
ECCENTRICITY   = .0001524
INCLINATION    = 42.9995
RA_OF_ASC_NODE = 118.6982
ARG_OF_PERICENTER = 279.9025
MEAN_ANOMALY   = 67.8631

EPHEMERIS_TYPE = 0
CLASSIFICATION_TYPE = U
NORAD_CAT_ID   = 67500
ELEMENT_SET_NO = 999
REV_AT_EPOCH   = 443
BSTAR          = -.23584E-1
MEAN_MOTION_DOT = -.1943128E-1
MEAN_MOTION_DDOT = 0

CCSDS_OMM_VERS = 2.0
CREATION_DATE  = 
ORIGINATOR     = 

OBJECT_NAME    = STARLINK-36433
OBJECT_ID      = 2026-012J
CENTER_NAME    = EARTH
REF_FRAME      = TEME
TIME_SYSTEM    = UTC
MEAN_ELEMENT_THEORY = SGP/SGP4

EPOCH          = 2026-02-08T20:00:01.999008
MEAN_MOTION    = 15.63378630
ECCENTRICITY   = .0001538
INCLINATION    = 42.9995
RA_OF_ASC_NODE = 118.6729
ARG_OF_PERICENTER = 283.3713
MEAN_ANOMALY   = 74.4789

EPHEMERIS_TYPE = 0
CLASSIFICATION_TYPE = U
NORAD_CAT_ID   = 67501
ELEMENT_SET_NO = 999
REV_AT_EPOCH   = 443
BSTAR          = -.23303E-1
MEAN_MOTION_DOT = -.1947549E-1
MEAN_MOTION_DDOT = 0

CCSDS_OMM_VERS = 2.0
CREATION_DATE  = 
ORIGINATOR     = 

OBJECT_NAME    = STARLINK-36554
OBJECT_ID      = 2026-012K
CENTER_NAME    = EARTH
REF_FRAME      = TEME
TIME_SYSTEM    = UTC
MEAN_ELEMENT_THEORY = SGP/SGP4

EPOCH          = 2026-02-08T20:00:01.999008
MEAN_MOTION    = 15.58625635
ECCENTRICITY   = .0001482
INCLINATION    = 42.9991
RA_OF_ASC_NODE = 118.8752
ARG_OF_PERICENTER = 276.9645
MEAN_ANOMALY   = 358.9153

EPHEMERIS_TYPE = 0
CLASSIFICATION_TYPE = U
NORAD_CAT_ID   = 67502
ELEMENT_SET_NO = 999
REV_AT_EPOCH   = 437
BSTAR          = -.27732E-1
MEAN_MOTION_DOT = -.192778E-1
MEAN_MOTION_DDOT = 0

CCSDS_OMM_VERS = 2.0
CREATION_DATE  = 
ORIGINATOR     = 

OBJECT_NAME    = STARLINK-36552
OBJECT_ID      = 2026-012L
CENTER_NAME    = EARTH
REF_FRAME      = TEME
TIME_SYSTEM    = UTC
MEAN_ELEMENT_THEORY = SGP/SGP4

EPOCH          = 2026-02-08T20:00:01.999008
MEAN_MOTION    = 15.64393154
ECCENTRICITY   = .0001513
INCLINATION    = 42.9995
RA_OF_ASC_NODE = 118.6109
ARG_OF_PERICENTER = 286.6066
MEAN_ANOMALY   = 96.0036

EPHEMERIS_TYPE = 0
CLASSIFICATION_TYPE = U
NORAD_CAT_ID   = 67503
ELEMENT_SET_NO = 999
REV_AT_EPOCH   = 443
BSTAR          = -.223E-1
MEAN_MOTION_DOT = -.1941594E-1
MEAN_MOTION_DDOT = 0

CCSDS_OMM_VERS = 2.0
CREATION_DATE  = 
ORIGINATOR     = 

OBJECT_NAME    = STARLINK-36512
OBJECT_ID      = 2026-012M
CENTER_NAME    = EARTH
REF_FRAME      = TEME
TIME_SYSTEM    = UTC
MEAN_ELEMENT_THEORY = SGP/SGP4

EPOCH          = 2026-02-08T20:00:01.999008
MEAN_MOTION    = 15.62391540
ECCENTRICITY   = .0001483
INCLINATION    = 42.9997
RA_OF_ASC_NODE = 118.6774
ARG_OF_PERICENTER = 280.7589
MEAN_ANOMALY   = 75.0052

EPHEMERIS_TYPE = 0
CLASSIFICATION_TYPE = U
NORAD_CAT_ID   = 67504
ELEMENT_SET_NO = 999
REV_AT_EPOCH   = 443
BSTAR          = -.24173E-1
MEAN_MOTION_DOT = -.1943231E-1
MEAN_MOTION_DDOT = 0

